STARLINK-31120          
1 58778U 24011P   26068.22184650 -.00003842  00000+0 -11782-3 0  9993
2 58778  53.1620  16.1945 0000897  88.4258 271.6845 15.30163282120196
2025-313BE              
1 67482U 25313BE  26068.69721505  .00077178  00000+0  26504-2 0  9996
2 67482  97.3989 145.3568 0007208 335.3714  24.7181 15.29801687  7972
